86P/Wild,e,15.4801,72.2610,179.8256,3.609479,0.1437266,0.37242300,76.6887,07/27.0/2023,2000,g 11.0,6.0
# From MPEC 2020-SI8
87P/Bus,e,4.3429,182.7418,55.4083,4.187370,0.1150249,0.27190670,129.7618,07/27.0/2023,2000,g  7.2,10.0
# From MPEC 2023-J29
88P/Howell,e,4.3819,56.6667,235.9365,3.106557,0.1800052,0.56346474,186.1382,07/27.0/2023,2000,g 11.0,6.0
# From MPEC 2023-J29
89P/Russell,e,12.0721,41.3466,250.3980,3.753051,0.1355587,0.40800507,326.9799,07/27.0/2023,2000,g 11.5,6.0
# From MPEC 2022-K19
90P/Gehrels,e,9.6501,13.2037,29.0872,6.051350,0.0662103,0.51113930,147.3521,07/27.0/2023,2000,g  8.5,6.0
# From MPEC 2021-S45
91P/Russell,e,14.5868,245.2694,357.3157,3.897646,0.1280856,0.33631633,126.2495,07/27.0/2023,2000,g  7.5,6.0
# From MPEC 2014-J58
92P/Sanguin,e,19.5055,181.3616,163.8172,5.342812,0.0798085,0.66081345,244.4134,07/27.0/2023,2000,g 12.0,6.0
# From NK 2707
93P/Lovas,e,12.2036,339.6105,74.8855,4.378759,0.1075666,0.61382341,251.2693,07/27.0/2023,2000,g  9.0,4.0
# From MPEC 2023-O39
94P/Russell,e,6.1877,70.8538,92.4152,3.510156,0.1498699,0.36553793,10.0316,07/27.0/2023,2000,g  9.0,6.0
# From MPC 75717
95P/Chiron,e,6.9171,209.3075,339.3801,13.71295,0.0194092,0.37632920,195.9684,07/27.0/2023,2000,g  6.5,2.0
# From MPEC 2023-N01
96P/Machholz,e,57.5101,93.9530,14.7477,3.030695,0.1868059,0.96158921,33.0490,07/27.0/2023,2000,g 13.0,4.8
# From MPEC 2022-C56
97P/Metcalf-Brewington,e,17.9516,184.0780,230.0426,4.763857,0.0947908,0.46028391,49.8782,07/27.0/2023,2000,g  5.5,6.0
# From MPEC 2021-W31
98P/Takamizawa,e,10.5641,114.6628,157.7691,3.791907,0.1334804,0.56229373,124.6232,07/27.0/2023,2000,g  9.0,8.0
# From MPEC 2023-O39
99P/Kowal,e,4.3397,28.1006,174.7767,6.099800,0.0654230,0.22862917,30.8701,07/27.0/2023,2000,g  4.5,6.0
# From MPEC 2022-QD9
100P/Hartley,e,25.5668,37.6873,181.9624,3.430813,0.1550988,0.41187603,54.2999,07/27.0/2023,2000,g  9.0,8.0
# From MPEC 2022-K19
101P/Chernykh,e,5.0500,116.1870,277.8160,5.810812,0.0703637,0.59639220,90.8159,07/27.0/2023,2000,g 10.0,4.8
# From MPEC 2022-C56
102P/Shoemaker,e,25.8765,339.3717,20.6723,3.817267,0.1321525,0.45695382,120.9697,07/27.0/2023,2000,g  6.5,8.0
# From MPEC 2023-O39
103P/Hartley,e,13.6103,219.7509,181.3016,3.475272,0.1521321,0.69381006,348.2075,07/27.0/2023,2000,g  8.5,8.0
# From MPEC 2023-G31
104P/Kowal,e,5.7032,207.2085,227.2498,3.208529,0.1714925,0.66573288,96.2524,07/27.0/2023,2000,g 16.0,4.0
# From MPC109147
105P/Singer Brewster,e,9.1684,192.3951,46.4041,3.470206,0.1524653,0.40884034,276.7608,07/27.0/2023,2000,g 11.5,6.0
# From MPEC 2022-GA9
106P/Schuster,e,19.5397,48.8639,353.7410,3.766089,0.1348553,0.59397081,95.3496,07/27.0/2023,2000,g 14.0,4.8
# From MPEC 2015-M77
107P/Wilson-Harrington,e,2.7989,266.7662,95.4615,2.624691,0.2317858,0.63160612,77.9616,07/27.0/2023,2000,g  9.0,4.0
# From MPEC 2022-P82
108P/Ciffreo,e,11.4377,50.2717,354.4976,3.741542,0.1361847,0.55611864,93.2480,07/27.0/2023,2000,g  8.0,12.0
# From  105, 420
109P/Swift-Tuttle,e,113.6252,139.3176,153.1017,26.20383,0.0073478,0.96260221,82.1446,07/27.0/2023,2000,g  4.0,6.0
# From MPEC 2023-KD6
110P/Hartley,e,11.7052,287.5077,167.4741,3.603923,0.1440591,0.31880437,93.1391,07/27.0/2023,2000,g  1.0,12.0
# From MPC 75718
111P/Helin-Roman-Crockett,e,4.2258,89.7443,1.1581,4.151408,0.1165228,0.10696445,89.7378,07/27.0/2023,2000,g  5.0,8.0
# From MPEC 2021-S45
112P/Urata-Niijima,e,24.2136,31.8350,21.4787,3.524169,0.1489769,0.59069215,188.3040,07/27.0/2023,2000,g 14.0,6.0
# From MPEC 2023-HD1
113P/Spitaler,e,5.2888,306.6745,115.5700,3.692848,0.1388871,0.41991720,58.3910,07/27.0/2023,2000,g 14.9,4.0
# From MPEC 2023-A50
114P/Wiseman-Skiff,e,18.2938,271.0232,172.7492,3.542465,0.1478243,0.55563518,190.5811,07/27.0/2023,2000,g 11.5,6.0
# From MPEC 2023-J29
115P/Maury,e,11.6772,176.0091,120.9957,4.272147,0.1116181,0.51779591,122.0153,07/27.0/2023,2000,g 10.5,6.0
# From MPEC 2023-O39
116P/Wild,e,3.6033,20.9775,173.2439,3.488727,0.1512529,0.37033493,56.7548,07/27.0/2023,2000,g  2.5,10.0
# From MPEC 2023-O39
117P/Helin-Roman-Alu,e,8.7041,58.8260,223.1428,4.086552,0.1193077,0.25588711,45.7333,07/27.0/2023,2000,g  2.5,8.0
# From MPEC 2023-N01
118P/Shoemaker-Levy,e,10.0911,142.0959,314.8538,3.347344,0.1609362,0.45358039,39.3689,07/27.0/2023,2000,g 12.0,4.0
# From MPEC 2023-M14
119P/Parker-Hartley,e,7.3928,104.5683,322.1101,3.805757,0.1327524,0.38832548,46.3123,07/27.0/2023,2000,g 12.5,4.0
# From MPEC 2022-CN4
120P/Mueller,e,8.4885,358.6746,36.7072,3.966583,0.1247611,0.37486159,101.0965,07/27.0/2023,2000,g 12.0,4.0
# From MPEC 2023-D41
121P/Shoemaker-Holt,e,20.1646,94.1149,11.6671,4.584163,0.1004185,0.18626732,2.8322,07/27.0/2023,2000,g  6.5,8.0
# From MPC 75718
122P/de Vico,e,85.7514,79.6932,12.9897,17.62532,0.0133198,0.96238003,135.5894,07/27.0/2023,2000,g  7.5,5.2
# From MPEC 2021-F20
123P/West-Hartley,e,15.2880,45.8917,104.0720,3.880948,0.1289132,0.44422015,211.2169,07/27.0/2023,2000,g 12.2,4.0
# From MPEC 2022-YN2
124P/Mrkos,e,31.5226,0.1080,185.2386,3.370061,0.1593116,0.48784056,190.7254,07/27.0/2023,2000,g 13.5,2.8
# From MPEC 2022-YB4
125P/Spacewatch,e,9.9855,153.1525,87.1562,3.128673,0.1781000,0.51208839,320.0488,07/27.0/2023,2000,g 13.0,6.0
# From MPEC 2023-O39
126P/IRAS,e,45.8751,357.8708,356.5960,5.636528,0.0736523,0.69653030,1.5961,07/27.0/2023,2000,g  6.0,8.0
# From MPEC 2023-D41
127P/Holt-Olmstead,e,14.3012,13.6042,6.2714,3.452073,0.1536682,0.35942454,53.8771,07/27.0/2023,2000,g 11.0,6.0
# From MPC 89014
128P/Shoemaker-Holt,e,4.3704,214.3305,210.3027,4.487160,0.1036923,0.32213015,247.4637,07/27.0/2023,2000,g  8.5,4.0
# From MPEC 2023-M14
129P/Shoemaker-Levy,e,3.4424,184.8608,307.4519,4.289894,0.1109262,0.08521156,26.4991,07/27.0/2023,2000,g 11.0,4.0
# From MPEC 2023-M14
130P/McNaught-Hughes,e,6.0634,70.1791,246.1135,3.382480,0.1584350,0.46104196,318.3567,07/27.0/2023,2000,g 10.0,6.0
# From MPC102101
131P/Mueller,e,7.3620,214.1492,179.0984,3.678039,0.1397267,0.34484194,229.4761,07/27.0/2023,2000,g 11.0,4.0
# From MPEC 2022-TD3
132P/Helin-Roman-Alu,e,5.3824,173.9956,216.4178,3.889085,0.1285088,0.56471224,79.7745,07/27.0/2023,2000,g 11.0,6.0
# From MPC 94676
133P/Elst-Pizarro,e,1.3898,160.1013,131.9069,3.165297,0.1750179,0.15627474,309.5492,07/27.0/2023,2000,g 15.4,2.0
# From MPC 89012
134P/Kowal-Vavrova,e,4.3340,202.0469,18.8001,6.265664,0.0628425,0.58499466,211.4917,07/27.0/2023,2000,g 11.5,4.0
# From MPEC 2022-OB6
135P/Shoemaker-Levy,e,6.0635,213.0228,22.3581,3.800010,0.1330537,0.29452330,63.2798,07/27.0/2023,2000,g  7.0,8.0
# From MPEC 2020-W26
136P/Mueller,e,9.4252,137.4259,225.1587,4.187928,0.1150020,0.29337473,299.5387,07/27.0/2023,2000,g 11.0,4.0
# From MPEC 2023-J29
137P/Shoemaker-Levy,e,4.8592,232.9365,141.1860,4.521788,0.1025035,0.57379454,172.7035,07/27.0/2023,2000,g 11.0,4.0
# From MPEC 2016-U66
138P/Shoemaker-Levy,e,10.0917,309.2632,95.6265,3.619750,0.1431153,0.53151042,221.0246,07/27.0/2023,2000,g 15.0,6.0
# From MPEC 2020-HN5
139P/Vaisala-Oterma,e,2.3376,242.1387,165.8095,4.517560,0.1026475,0.24813237,210.5870,07/27.0/2023,2000,g  9.5,4.0
# From MPEC 2015-E14
140P/Bowell-Skiff,e,3.8335,343.2536,172.5789,6.408582,0.0607521,0.69520978,177.2074,07/27.0/2023,2000,g 11.5,6.0
# From MPEC 2021-AJ0
141P/Machholz,e,13.9593,241.7833,153.6166,3.057688,0.1843378,0.73609426,175.5393,07/27.0/2023,2000,g 14.7,4.0
# From MPEC 2022-SU8
141P-I/Machholz,e,13.9585,241.7888,153.5920,3.048267,0.1851930,0.73529691,176.4370,07/27.0/2023,2000,g 17.5,4.0
# From MPEC 2021-Y10
142P/Ge-Wang,e,12.2511,175.9353,174.0450,5.001161,0.0881247,0.49694221,70.9689,07/27.0/2023,2000,g  8.5,6.0
# From MPEC 2023-J29
143P/Kowal-Mrkos,e,4.7665,244.6432,320.4875,4.264319,0.1119256,0.41671409,213.6175,07/27.0/2023,2000,g 13.5,2.0
# From MPC104795
144P/Kushida,e,3.9309,242.9274,216.3344,3.832327,0.1313743,0.63503416,336.0084,07/27.0/2023,2000,g  8.5,8.0
# From MPC108598
145P/Shoemaker-Levy,e,11.2801,26.7967,10.2942,4.134728,0.1172286,0.54252953,252.1871,07/27.0/2023,2000,g 13.5,4.0
# From MPC100284
146P/Shoemaker-LINEAR,e,23.1221,53.3762,317.0453,4.028068,0.1219155,0.64749395,314.2244,07/27.0/2023,2000,g 15.0,4.0
# From MPC 75720
147P/Kushida-Muramatsu,e,2.3108,91.6759,348.5107,4.017212,0.1224100,0.21370029,343.7328,07/27.0/2023,2000,g 14.0,4.0
# From MPEC 2023-HD1
148P/Anderson-LINEAR,e,3.6581,89.2025,8.0437,3.619325,0.1431406,0.55005676,58.4399,07/27.0/2023,2000,g 16.2,4.0
# From MPEC 2023-J29
149P/Mueller,e,34.2590,143.8977,30.4761,4.122537,0.1177490,0.32441897,213.9296,07/27.0/2023,2000,g  8.0,8.0
# From MPEC 2022-YN2
150P/LONEOS,e,18.5454,272.0607,246.0867,3.870621,0.1294295,0.54894957,330.3060,07/27.0/2023,2000,g 13.5,4.0
# From MPEC 2022-K19
151P/Helin,e,4.7266,143.1373,216.1450,5.763328,0.0712351,0.57364888,202.4954,07/27.0/2023,2000,g 10.0,6.0
# From MPEC 2022-UY9
152P/Helin-Lawrence,e,9.8779,91.8328,164.1677,4.480020,0.1039403,0.30858511,58.0494,07/27.0/2023,2000,g 11.5,4.0
# From MPC 46101
153P/Ikeya-Zhang,e,28.2563,93.5713,34.5579,50.34211,0.0027594,0.98984785,0.0000,03/03.4742/2002,2000,g  9.0,4.0
# From MPEC 2022-K19
154P/Brewington,e,17.6330,343.0208,47.9410,4.796542,0.0938235,0.67617422,329.9351,07/27.0/2023,2000,g  2.5,12.0
# From MPEC 2022-YN2
155P/Shoemaker,e,6.4042,97.1650,14.5301,6.571661,0.0585048,0.72692201,78.9563,07/27.0/2023,2000,g 10.0,4.8
# From MPEC 2023-J29
156P/Russell-LINEAR,e,17.2709,35.3420,0.4861,3.462289,0.1529886,0.61518359,150.0291,07/27.0/2023,2000,g 15.5,2.0
# From MPEC 2023-HD1
157P/Tritton,e,12.4198,287.5380,155.0844,3.545931,0.1476076,0.55671463,47.2574,07/27.0/2023,2000,g 15.0,4.0
# From MPEC 2022-VC5
157P-B/Tritton,e,12.4267,287.0808,153.9607,3.101645,0.1804330,0.49978520,58.0925,07/27.0/2023,2000,g 15.7,4.0
# From MPEC 2023-A50
158P/Kowal-LINEAR,e,7.3261,130.2934,202.7236,5.442177,0.0776328,0.10786014,41.7006,07/27.0/2023,2000,g  9.0,4.0
# From MPEC 2021-N06
159P/LONEOS,e,23.4868,54.9409,4.6018,5.852781,0.0696082,0.38269995,131.5584,07/27.0/2023,2000,g 10.0,4.0
# From MPEC 2022-K19
